ONEWEB-0371             
1 49297U 21090U   24303.57312265  .00000140  00000+0  31626-3 0  9991
2 49297  87.9171  63.4039 0001643  95.1112 265.0208 13.19729410147893
ONEWEB-0372             
1 49298U 21090V   24303.71296661  .00000114  00000+0  24811-3 0  9998
2 49298  87.9298  32.9034 0001816  99.3194 260.8144 13.20774724151233
ONEWEB-0373             
1 49299U 21090W   24303.96718905  .00000106  00000+0  22847-3 0  9994
2 49299  87.9297  32.8672 0001752 111.7366 248.3954 13.20775114152458
ONEWEB-0374             
1 49300U 21090X   24303.57319406 -.00000061  00000+0 -19892-3 0  9995
2 49300  87.9026  48.1388 0001764 103.8563 256.2763 13.14504249149318
ONEWEB-0375             
1 49301U 21090Y   24303.95456736  .00000067  00000+0  13248-3 0  9999
2 49301  87.9297  32.8467 0001611 126.4737 233.6545 13.20772254151952
ONEWEB-0376             
1 49302U 21090Z   24303.57156887  .00000089  00000+0  18884-3 0  9997
2 49302  87.9162  63.4037 0001894  94.7289 265.4060 13.19724508147899
ONEWEB-0377             
1 49303U 21090AA  24303.94051031  .00000099  00000+0  21238-3 0  9992
2 49303  87.9295  32.8413 0001420  98.8355 261.2939 13.20773681151947
ONEWEB-0378             
1 49304U 21090AB  24303.96260583  .00000176  00000+0  40145-3 0  9993
2 49304  87.9301  32.8418 0001689 106.0081 254.1239 13.20774639151214
